satname,norad_id,inclination_deg,eccentricity,mean_motion_rev_per_day,perigee_km,apogee_km,l1,l2
STARLINK-1404,45686,53.158,0.0003543,15.40748411,441.48219542581137,446.3162903075063,1 45686U 20035AF  26123.60248502  .00043032  00000+0  10402-2 0  9990,2 45686  53.1580 152.2578 0003543  32.9306 327.1920 15.40748411327417
STARLINK-1413,45689,53.1569,0.0003027,15.32114433,467.43208930997207,471.5776516983751,1 45689U 20035AJ  26123.48606972  .00047028  00000+0  14981-2 0  9993,2 45689  53.1569 154.8880 0003027  47.0670 313.0585 15.32114433327287
STARLINK-1417,45693,53.0488,0.000564,15.15159797,516.6026450681884,524.3843002413423,1 45693U 20035AN  26123.39174611  .00022112  00000+0  11773-2 0  9991,2 45693  53.0488 165.8510 0005640  29.5851 330.5460 15.15159797327180
STARLINK-1420,45695,53.0454,0.0007436,15.64605995,369.3509840496781,379.3933156573403,1 45695U 20035AQ  26123.67200747  .00060121  00000+0  61074-3 0  9996,2 45695  53.0454 114.8881 0007436  26.6962 333.4434 15.64605995327932
STARLINK-1422,45696,53.1559,0.0003227,15.32248857,466.89476468328667,471.3139742631447,1 45696U 20035AR  26123.49054757  .00049373  00000+0  15651-2 0  9990,2 45696  53.1559 154.8366 0003227  40.4401 319.6840 15.32248857327367
STARLINK-1351,45697,53.0444,0.0007421,15.61809076,377.4144135893257,387.44844925524285,1 45697U 20035AS  26123.26903444  .00125182  00000+0  14010-2 0  9993,2 45697  53.0444 116.8350 0007421  25.3722 334.7654 15.61809076327874
STARLINK-1400,45700,53.0436,0.000613,15.59839688,383.9729250316868,392.26835689951076,1 45700U 20035AV  26123.81367174  .00058190  00000+0  71186-3 0  9995,2 45700  53.0436 116.2214 0006130 356.5952   3.5017 15.59839688327922
STARLINK-1403,45701,53.1533,0.0002868,15.31148937,470.41844881929137,474.34790719339617,1 45701U 20035AW  26123.34900916  .00056852  00000+0  18614-2 0  9990,2 45701  53.1533 142.7829 0002868  46.3597 313.7642 15.31148937327516
STARLINK-1407,45703,53.0304,0.0002242,15.69048079,360.1105269427935,363.1326346904307,1 45703U 20035AY  26123.80883316  .00067358  00000+0  57161-3 0  9991,2 45703  53.0304  45.1352 0002242 339.2111  20.8814 15.69048079328922
STARLINK-1411,45706,53.0362,0.0004157,15.76142682,338.58820784802265,344.1748155386449,1 45706U 20035BB  26123.83335647  .00160146  00000+0  98889-3 0  9997,2 45706  53.0362  69.2959 0004157  79.9386  77.2621 15.76142682  5969
STARLINK-1423,45710,53.0432,0.0007708,15.65504423,366.5855932589857,376.99127831079204,1 45710U 20035BF  26123.40443133  .00057832  00000+0  56720-3 0  9990,2 45710  53.0432 115.8909 0007708 358.5231   1.5759 15.65504423327888
STARLINK-1433,45711,53.0433,0.0007686,15.65150731,367.6165198171684,377.9940683116047,1 45711U 20035BG  26123.82738128  .00051009  00000+0  50844-3 0  9999,2 45711  53.0433 112.3065 0007686   6.5587 353.5526 15.65150731327975
STARLINK-1434,45712,53.0503,0.0003921,15.31563229,468.4621282563785,473.83333734383996,1 45712U 20035BH  26123.26955440  .00054459  00000+0  17610-2 0  9991,2 45712  53.0503 126.2401 0003921 359.1676   0.9317 15.31563229327745
STARLINK-1465,45731,53.0475,0.0003108,15.58831462,388.93400151617425,393.1417206098122,1 45731U 20038B   26123.74674037  .00093056  00000+0  11744-2 0  9996,2 45731  53.0475 317.2092 0003108 155.4099 204.7061 15.58831462324940
STARLINK-1471,45735,53.0454,0.0002117,15.51885557,409.7837610348506,412.65837524089966,1 45735U 20038F   26123.82538360  .00027136  00000+0  45121-3 0  9990,2 45735  53.0454 237.2610 0002117  50.5647 309.5549 15.51885557326080
STARLINK-1480,45741,53.0505,0.0002767,15.60239789,385.0919486338289,388.8357554453469,1 45741U 20038M   26123.73859200  .00106622  00000+0  12726-2 0  9998,2 45741  53.0505 311.0215 0002767 244.3315 115.7411 15.60239789325042
STARLINK-1500,45744,53.0364,0.0003004,15.3766341,450.9687767730602,455.07293641330125,1 45744U 20038Q   26123.84447707  .00026485  00000+0  71367-3 0  9993,2 45744  53.0364 293.4388 0003004  86.3320 273.8026 15.37663410325298
STARLINK-1504,45746,53.0215,0.0002107,15.56906054,395.1901782691275,398.0450598656025,1 45746U 20038S   26123.76489265  .00036298  00000+0  50003-3 0  9998,2 45746  53.0215 235.7145 0002107  15.5386 344.5689 15.56906054326088
STARLINK-1506,45747,53.0775,0.000414,15.27774304,479.62705142992763,485.30763182479495,1 45747U 20038T   26123.70601284  .00009052  00000+0  34155-3 0  9998,2 45747  53.0775 307.5824 0004140  80.3383 279.8083 15.27774304325095
STARLINK-1464,45751,53.0479,8.9e-05,15.50981092,413.25583028796154,414.46480581057494,1 45751U 20038X   26123.72862323  .00086889  00000+0  14638-2 0  9994,2 45751  53.0479 301.5867 0000890 183.0658 177.0345 15.50981092325175
STARLINK-1477,45754,53.0499,0.0002589,15.17182254,512.5768981621422,516.1458338160501,1 45754U 20038AA  26123.75452546  .00029828  00000+0  14930-2 0  9997,2 45754  53.0499 322.1250 0002589 139.7253 220.3933 15.17182254324889
STARLINK-1478,45755,53.0468,9.75e-05,15.64775889,373.22505433781134,374.54169831119543,1 45755U 20038AB  26123.86017128  .00052015  00000+0  52674-3 0  9995,2 45755  53.0468 289.1711 0000975 296.9186  63.1729 15.64775889325340
STARLINK-1493,45759,53.049,0.0004344,15.59545412,386.0321477986754,391.91141190661074,1 45759U 20038AF  26123.85497714  .00093581  00000+0  11492-2 0  9996,2 45759  53.0490 297.8262 0004344 235.9847 124.0753 15.59545412325229
STARLINK-1494,45760,53.0426,0.0004861,15.88902826,302.10898165924755,308.6066753315108,1 45760U 20038AG  26123.91668980  .00189753  00000+0  64182-3 0  9992,2 45760  53.0426 234.2424 0004861 317.0477 203.2900 15.88902826  6015
STARLINK-1502,45764,53.0477,0.0005731,15.56018021,395.3108925310635,403.07907044824697,1 45764U 20038AL  26123.69748691  .00097961  00000+0  13715-2 0  9993,2 45764  53.0477 301.4798 0005731 208.6810 151.3886 15.56018021325176
STARLINK-1470,45772,53.0436,0.0001944,15.32725324,466.35443386299994,469.016089558354,1 45772U 20038AU  26123.72681441  .00046741  00000+0  14609-2 0  9998,2 45772  53.0436 277.9189 0001944 238.1165 121.9647 15.32725324325504
STARLINK-1482,45773,53.1604,0.0002151,15.34896903,459.7555910872816,462.6978853674673,1 45773U 20038AV  26123.85626729  .00046505  00000+0  13574-2 0  9999,2 45773  53.1604 293.8978 0002151 228.2637 131.8182 15.34896903325307
STARLINK-1496,45780,53.0475,0.000469,15.57731203,391.0487239024551,397.40119942249476,1 45780U 20038BC  26123.79539301  .00117864  00000+0  15435-2 0  9994,2 45780  53.0475 272.2177 0004690 322.7683  37.3002 15.57731203325579
STARLINK-1513,45786,53.1593,0.0001091,15.3169493,470.0078945444593,471.50232280257205,1 45786U 20038BJ  26123.73256437 -.00001436  00000+0 -34511-4 0  9997,2 45786  53.1593 295.2856 0001091  86.9668 273.1458 15.31694930325279
STARLINK-1522,46027,53.0643,0.0001308,15.11670172,530.2024558381045,532.0099138552605,1 46027U 20055A   26123.73654322  .00029066  00000+0  16993-2 0  9999,2 46027  53.0643 237.8929 0001308 294.7912  65.2943 15.11670172317201
STARLINK-1523,46028,53.1613,0.0001265,15.30184992,474.39292626292627,476.126835673811,1 46028U 20055B   26123.58261331  .00002183  00000+0  85836-4 0  9992,2 46028  53.1613 231.7336 0001265  79.8262 280.2881 15.30184992317309
STARLINK-1526,46029,53.1619,0.0001282,15.3018642,474.37701221786665,476.13422208490374,1 46029U 20055C   26123.57628419 -.00001097  00000+0 -24927-4 0  9995,2 46029  53.1619 231.7703 0001282  82.3160 277.7986 15.30186420317292
STARLINK-1555,46032,53.1602,0.00016,15.30191723,474.1432428754779,476.3363234460894,1 46032U 20055F   26123.62580315 -.00000033  00000+0  11022-4 0  9997,2 46032  53.1602 231.5222 0001600  75.6215 284.4963 15.30191723317306
STARLINK-1556,46033,53.1589,0.0001345,15.30180458,474.3516352284869,476.1952026311792,1 46033U 20055G   26123.67426237 -.00002232  00000+0 -63286-4 0  9998,2 46033  53.1589 231.3140 0001345  88.9271 271.1883 15.30180458317287
STARLINK-1557,46034,53.1581,0.0001263,15.30215304,474.30380221958603,476.0349474098648,1 46034U 20055H   26123.91668980 -.00022895  00000+0 -76286-3 0  9999,2 46034  53.1581 230.1849 0001263  82.3595 156.4687 15.30215304  5908
STARLINK-1558,46035,53.1605,0.0001298,15.30178468,474.38978740040784,476.16893428768344,1 46035U 20055J   26123.68479815  .00000400  00000+0  25629-4 0  9993,2 46035  53.1605 231.2612 0001298  87.6413 272.4737 15.30178468317316
STARLINK-1560,46036,53.1593,0.0001272,15.30177472,474.4105798524879,476.1540897312598,1 46036U 20055K   26123.60579255 -.00006287  00000+0 -20045-3 0  9992,2 46036  53.1593 231.6358 0001272  72.2448 287.8692 15.30177472317307
STARLINK-1567,46038,53.0791,0.0002894,16.08887169,247.97968582967405,251.81599239455136,1 46038U 20055M   26123.74041811  .01398906  12879-2  15846-2 0  9994,2 46038  53.0791 215.3052 0002894 336.9522  23.1381 16.08887169317529
STARLINK-1569,46039,53.1597,0.0001493,15.30200802,474.1894696864847,476.2358798993773,1 46039U 20055N   26123.91668980 -.00019275  00000+0 -64029-3 0  9994,2 46039  53.1597 230.1769 0001493  79.5424 101.2705 15.30200802  5866
STARLINK-1582,46043,53.1594,0.0001246,15.31692034,469.91036852764773,471.6171145924445,1 46043U 20055S   26123.67458448  .00001409  00000+0  57173-4 0  9999,2 46043  53.1594 231.0823 0001246  93.1062 267.0082 15.31692034317302
STARLINK-1591,46045,53.1578,0.0001176,15.30186897,474.4482340903842,476.06015169895454,1 46045U 20055U   26123.58998088 -.00001588  00000+0 -41512-4 0  9990,2 46045  53.1578 231.6986 0001176  92.5580 267.5556 15.30186897317273
STARLINK-1524,46047,53.1612,9.75e-05,15.31730013,469.98277271113875,471.3182862793901,1 46047U 20055W   26122.00002315 -.00010442  00000+0 -32489-3 0  9998,2 46047  53.1612 226.1738 0000975  81.4070 209.0176 15.31730013  5713
STARLINK-1527,46048,53.1598,0.0001231,15.31685662,469.93963437141974,471.62583841051946,1 46048U 20055X   26123.63924892  .00000369  00000+0  23676-4 0  9996,2 46048  53.1598 218.5256 0001231  90.4708 269.6435 15.31685662317468
